NORAD_CAT_ID,OBJECT_NAME,OBJECT_TYPE,EPOCH,MEAN_MOTION,ECCENTRICITY,INCLINATION,RA_OF_ASC_NODE,ARG_OF_PERICENTER,MEAN_ANOMALY,BSTAR,MEAN_MOTION_DOT,MEAN_MOTION_DDOT,TLE_LINE0,TLE_LINE1,TLE_LINE2,SEMIMAJOR_AXIS,PERIOD,APOGEE,PERIGEE,DECAYED
52989.0,STARLINK-4293,PAYLOAD,2023-09-25 10:52:13,15.08851321,0.0001308,53.216,167.4837,97.0902,263.0239,0.00035837,5.422e-05,0.0,0 STARLINK-4293,1 52989U 22076D   23268.45293545  .00005422  00000-0  35837-3 0  9990,2 52989  53.2160 167.4837 0001308  97.0902 263.0239 15.08851321 67403,6917.846,95.437,540.616,538.806,0.0
52989.0,STARLINK-4293,PAYLOAD,2023-09-25 21:59:55,15.08863538,0.000133,53.2161,165.403,89.6736,270.4409,0.00049689,7.634e-05,0.0,0 STARLINK-4293,1 52989U 22076D   23268.91661025  .00007634  00000-0  49689-3 0  9990,2 52989  53.2161 165.4030 0001330  89.6736 270.4409 15.08863538 67475,6917.808,95.436,540.594,538.753,0.0
52989.0,STARLINK-4293,PAYLOAD,2023-09-26 02:46:03,15.08873997,0.0001406,53.2148,164.5101,101.8528,258.2622,0.00079251,0.00012359,0.0,0 STARLINK-4293,1 52989U 22076D   23269.11532341  .00012359  00000-0  79251-3 0  9999,2 52989  53.2148 164.5101 0001406 101.8528 258.2622 15.08873997 67975,6917.776,95.435,540.614,538.669,0.0
52989.0,STARLINK-4293,PAYLOAD,2023-09-26 20:15:19,15.08832549,0.0001503,53.2161,161.2411,97.1882,262.9281,-0.0002533,-4.316e-05,0.0,0 STARLINK-4293,1 52989U 22076D   23269.84397713 -.00004316  00000-0 -25330-3 0  9996,2 52989  53.2161 161.2411 0001503  97.1882 262.9281 15.08832549 67618,6917.903,95.438,540.808,538.728,0.0
52989.0,STARLINK-4293,PAYLOAD,2023-09-26 23:26:06,15.08831026,0.0001366,53.2164,160.6465,77.0819,283.0326,-0.00015028,-2.678e-05,0.0,0 STARLINK-4293,1 52989U 22076D   23269.97645936 -.00002678  00000-0 -15028-3 0  9995,2 52989  53.2164 160.6465 0001366  77.0819 283.0326 15.08831026 68105,6917.908,95.438,540.718,538.828,0.0
52989.0,STARLINK-4293,PAYLOAD,2023-09-27 02:36:52,15.08830474,0.0001377,53.2164,160.0498,76.1916,283.9229,-4.8199e-05,-1.055e-05,0.0,0 STARLINK-4293,1 52989U 22076D   23270.10894081 -.00001055  00000-0 -48199-4 0  9993,2 52989  53.2164 160.0498 0001377  76.1916 283.9229 15.08830474 67651,6917.91,95.438,540.727,538.822,0.0
52989.0,STARLINK-4293,PAYLOAD,2023-09-27 23:16:53,15.08833832,0.0001467,53.2173,156.1829,85.9478,274.1682,-1.5255e-05,-5.31e-06,0.0,0 STARLINK-4293,1 52989U 22076D   23270.97006828 -.00000531  00000-0 -15255-4 0  9997,2 52989  53.2173 156.1829 0001467  85.9478 274.1682 15.08833832 67786,6917.899,95.438,540.779,538.749,0.0
52989.0,STARLINK-4293,PAYLOAD,2023-09-28 16:46:08,15.08843774,0.0001459,53.217,152.9115,77.7291,282.3864,0.00048902,7.504e-05,0.0,0 STARLINK-4293,1 52989U 22076D   23271.69871119  .00007504  00000-0  48902-3 0  9999,2 52989  53.2170 152.9115 0001459  77.7291 282.3864 15.08843774 68362,6917.869,95.437,540.743,538.725,0.0
52989.0,STARLINK-4293,PAYLOAD,2023-09-28 21:32:17,15.08852961,0.0001448,53.2169,152.0198,80.2816,279.834,0.00063483,9.833e-05,0.0,0 STARLINK-4293,1 52989U 22076D   23271.89742865  .00009833  00000-0  63483-3 0  9994,2 52989  53.2169 152.0198 0001448  80.2816 279.8340 15.08852961 67921,6917.841,95.437,540.707,538.704,0.0
52989.0,STARLINK-4293,PAYLOAD,2023-09-29 02:18:26,15.08860315,0.0001489,53.2173,151.1294,80.2266,279.8894,0.00071659,0.00011141,0.0,0 STARLINK-4293,1 52989U 22076D   23272.09614574  .00011141  00000-0  71659-3 0  9991,2 52989  53.2173 151.1294 0001489  80.2266 279.8894 15.08860315 68429,6917.818,95.436,540.713,538.653,0.0
52989.0,STARLINK-4293,PAYLOAD,2023-09-29 19:47:41,15.0885134,0.0001503,53.2169,147.8581,81.964,278.1522,0.00017359,2.477e-05,0.0,0 STARLINK-4293,1 52989U 22076D   23272.82478267  .00002477  00000-0  17359-3 0  9998,2 52989  53.2169 147.8581 0001503  81.9640 278.1522 15.08851340 68536,6917.846,95.437,540.75,538.671,0.0
52989.0,STARLINK-4293,PAYLOAD,2023-09-30 08:30:46,15.08844458,0.0001435,53.2154,145.48,86.1191,273.9965,-3.1308e-05,-7.86e-06,0.0,0 STARLINK-4293,1 52989U 22076D   23273.35470166 -.00000786  00000-0 -31308-4 0  9991,2 52989  53.2154 145.4800 0001435  86.1191 273.9965 15.08844458 68615,6917.867,95.437,540.724,538.739,0.0
52989.0,STARLINK-4293,PAYLOAD,2023-10-01 00:24:38,15.0883424,0.0001613,53.2162,142.5068,101.1023,259.015,-0.00014017,-2.518e-05,0.0,0 STARLINK-4293,1 52989U 22076D   23274.01710980 -.00002518  00000-0 -14017-3 0  9998,2 52989  53.2162 142.5068 0001613 101.1023 259.0150 15.08834240 68718,6917.898,95.438,540.879,538.647,0.0
52989.0,STARLINK-4293,PAYLOAD,2023-10-01 08:21:34,15.08831858,0.0001553,53.2171,141.0201,103.7022,256.4143,0.0001958,2.829e-05,0.0,0 STARLINK-4293,1 52989U 22076D   23274.34831409  .00002829  00000-0  19580-3 0  9997,2 52989  53.2171 141.0201 0001553 103.7022 256.4143 15.08831858 68299,6917.905,95.438,540.845,538.696,0.0
52989.0,STARLINK-4293,PAYLOAD,2023-10-01 19:29:15,15.08848239,0.0001471,53.2162,138.9406,99.2601,260.8558,0.00014283,1.986e-05,0.0,0 STARLINK-4293,1 52989U 22076D   23274.81198201  .00001986  00000-0  14283-3 0  9993,2 52989  53.2162 138.9406 0001471  99.2601 260.8558 15.08848239 68832,6917.855,95.437,540.738,538.703,0.0
52989.0,STARLINK-4293,PAYLOAD,2023-10-01 21:04:38,15.08850171,0.0001483,53.2161,138.6434,99.0193,261.0967,0.00016437,2.33e-05,0.0,0 STARLINK-4293,1 52989U 22076D   23274.87822053  .00002330  00000-0  16437-3 0  9995,2 52989  53.2161 138.6434 0001483  99.0193 261.0967 15.08850171 68370,6917.849,95.437,540.74,538.688,0.0
52989.0,STARLINK-4293,PAYLOAD,2023-10-02 08:12:20,15.08843265,0.0001692,53.2163,136.5617,85.2663,274.8522,0.00015615,2.198e-05,0.0,0 STARLINK-4293,1 52989U 22076D   23275.34190576  .00002198  00000-0  15615-3 0  9995,2 52989  53.2163 136.5617 0001692  85.2663 274.8522 15.08843265 68918,6917.87,95.437,540.906,538.565,0.0
52989.0,STARLINK-4293,PAYLOAD,2023-10-02 20:55:25,15.08841943,0.0001438,53.2159,134.179,102.0093,258.1061,0.000197,2.849e-05,0.0,0 STARLINK-4293,1 52989U 22076D   23275.87182730  .00002849  00000-0  19700-3 0  9998,2 52989  53.2159 134.1790 0001438 102.0093 258.1061 15.08841943 68523,6917.874,95.437,540.734,538.745,0.0
52989.0,STARLINK-4293,PAYLOAD,2023-10-03 08:03:07,15.08844739,0.0001382,53.2152,132.0989,91.759,268.356,0.00014752,2.061e-05,0.0,0 STARLINK-4293,1 52989U 22076D   23276.33550571  .00002061  00000-0  14752-3 0  9990,2 52989  53.2152 132.0989 0001382  91.7590 268.3560 15.08844739 68597,6917.866,95.437,540.687,538.775,0.0
52989.0,STARLINK-4293,PAYLOAD,2023-10-03 19:10:49,15.08837741,0.0001442,53.2148,130.0176,88.5501,271.5657,2.379e-05,9.1e-07,0.0,0 STARLINK-4293,1 52989U 22076D   23276.79918833  .00000091  00000-0  23790-4 0  9993,2 52989  53.2148 130.0176 0001442  88.5501 271.5657 15.08837741 69130,6917.887,95.438,540.75,538.755,0.0
52989.0,STARLINK-4293,PAYLOAD,2023-10-03 20:46:12,15.08841823,0.0001501,53.2152,129.7191,96.9453,263.171,3.0945e-05,2.05e-06,0.0,0 STARLINK-4293,1 52989U 22076D   23276.86542650  .00000205  00000-0  30945-4 0  9998,2 52989  53.2152 129.7191 0001501  96.9453 263.1710 15.08841823 68673,6917.875,95.437,540.778,538.701,0.0
52989.0,STARLINK-4293,PAYLOAD,2023-10-04 07:53:54,15.08842397,0.0001481,53.2158,127.6371,104.9999,255.1157,3.9898e-06,-2.24e-06,0.0,0 STARLINK-4293,1 52989U 22076D   23277.32910681 -.00000224  00000-0  39898-5 0  9992,2 52989  53.2158 127.6371 0001481 104.9999 255.1157 15.08842397 68749,6917.873,95.437,540.763,538.714,0.0
52989.0,STARLINK-4293,PAYLOAD,2023-10-04 20:37:00,15.08835903,0.0001431,53.2164,125.2589,91.3778,268.7378,-5.1969e-05,-1.115e-05,0.0,0 STARLINK-4293,1 52989U 22076D   23277.85903283 -.00001115  00000-0 -51969-4 0  9993,2 52989  53.2164 125.2589 0001431  91.3778 268.7378 15.08835903 68829,6917.893,95.438,540.748,538.768,0.0
52989.0,STARLINK-4293,PAYLOAD,2023-10-04 23:47:46,15.08836488,0.0001462,53.2164,124.6637,92.7909,267.325,-2.9601e-05,-7.59e-06,0.0,0 STARLINK-4293,1 52989U 22076D   23277.99151247 -.00000759  00000-0 -29601-4 0  9994,2 52989  53.2164 124.6637 0001462  92.7909 267.3250 15.08836488 69319,6917.891,95.438,540.768,538.745,0.0
52989.0,STARLINK-4293,PAYLOAD,2023-10-05 14:06:14,15.08845138,0.0001464,53.2174,121.9879,94.9627,265.1532,0.00015525,2.184e-05,0.0,0 STARLINK-4293,1 52989U 22076D   23278.58766677  .00002184  00000-0  15525-3 0  9990,2 52989  53.2174 121.9879 0001464  94.9627 265.1532 15.08845138 68939,6917.865,95.437,540.742,538.717,0.0
52989.0,STARLINK-4293,PAYLOAD,2023-10-05 18:52:23,15.08851416,0.0001441,53.2163,121.0962,91.119,268.9967,0.00029624,4.431e-05,0.0,0 STARLINK-4293,1 52989U 22076D   23278.78638622  .00004431  00000-0  29624-3 0  9992,2 52989  53.2163 121.0962 0001441  91.1190 268.9967 15.08851416 69435,6917.845,95.437,540.707,538.714,0.0
52989.0,STARLINK-4293,PAYLOAD,2023-10-05 20:27:46,15.08856197,0.0001395,53.2162,120.7993,87.3807,272.7345,0.00039298,5.975e-05,0.0,0 STARLINK-4293,1 52989U 22076D   23278.85262543  .00005975  00000-0  39298-3 0  9997,2 52989  53.2162 120.7993 0001395  87.3807 272.7345 15.08856197 68976,6917.831,95.437,540.661,538.731,0.0
52989.0,STARLINK-4293,PAYLOAD,2023-10-06 13:57:01,15.08838434,0.0001192,53.2165,117.5275,95.2289,264.8839,3.3682e-05,2.48e-06,0.0,0 STARLINK-4293,1 52989U 22076D   23279.58127133  .00000248  00000-0  33682-4 0  9993,2 52989  53.2165 117.5275 0001192  95.2289 264.8839 15.08838434 69080,6917.885,95.438,540.575,538.926,0.0
52989.0,STARLINK-4293,PAYLOAD,2023-10-06 18:43:11,15.08845162,0.0001269,53.2162,116.6358,98.5333,261.5803,0.00018034,2.584e-05,0.0,0 STARLINK-4293,1 52989U 22076D   23279.77998928  .00002584  00000-0  18034-3 0  9990,2 52989  53.2162 116.6358 0001269  98.5333 261.5803 15.08845162 69586,6917.865,95.437,540.607,538.852,0.0
52989.0,STARLINK-4293,PAYLOAD,2023-10-06 20:18:34,15.08844766,0.0001209,53.2162,116.3386,94.4634,265.6496,0.00034712,5.242e-05,0.0,0 STARLINK-4293,1 52989U 22076D   23279.84622915  .00005242  00000-0  34712-3 0  9993,2 52989  53.2162 116.3386 0001209  94.4634 265.6496 15.08844766 69129,6917.866,95.437,540.567,538.894,0.0
